NORAD_CAT_ID,OBJECT_NAME,OBJECT_TYPE,EPOCH,MEAN_MOTION,ECCENTRICITY,INCLINATION,RA_OF_ASC_NODE,ARG_OF_PERICENTER,MEAN_ANOMALY,BSTAR,MEAN_MOTION_DOT,MEAN_MOTION_DDOT,TLE_LINE0,TLE_LINE1,TLE_LINE2,SEMIMAJOR_AXIS,PERIOD,APOGEE,PERIGEE,DECAYED
53795.0,STARLINK-4742,PAYLOAD,2023-02-19 14:49:40,15.08829569,0.0001076,53.2164,235.0589,91.675,268.4365,2.2523e-05,7.1e-07,0.0,0 STARLINK-4742,1 53795U 22111Y   23050.61783332  .00000071  00000-0  22523-4 0  9995,2 53795  53.2164 235.0589 0001076  91.6750 268.4365 15.08829569 24706,6917.912,95.438,540.522,539.033,0.0
53795.0,STARLINK-4742,PAYLOAD,2023-02-20 05:08:08,15.08837893,0.0001074,53.2166,232.3825,85.3947,274.7168,9.4487e-05,1.216e-05,0.0,0 STARLINK-4742,1 53795U 22111Y   23051.21398822  .00001216  00000-0  94487-4 0  9998,2 53795  53.2166 232.3825 0001074  85.3947 274.7168 15.08837893 24796,6917.887,95.438,540.495,539.009,0.0
53795.0,STARLINK-4742,PAYLOAD,2023-02-20 13:05:04,15.08840672,0.0001074,53.2167,230.8955,84.8011,275.3104,4.3629e-05,4.07e-06,0.0,0 STARLINK-4742,1 53795U 22111Y   23051.54518824  .00000407  00000-0  43629-4 0  9993,2 53795  53.2167 230.8955 0001074  84.8011 275.3104 15.08840672 25641,6917.878,95.438,540.486,539.0,0.0
53795.0,STARLINK-4742,PAYLOAD,2023-02-20 21:01:59,15.08847133,0.0001087,53.2168,229.4087,83.9696,276.142,8.9637e-05,1.139e-05,0.0,0 STARLINK-4742,1 53795U 22111Y   23051.87638203  .00001139  00000-0  89637-4 0  9995,2 53795  53.2168 229.4087 0001087  83.9696 276.1420 15.08847133 24890,6917.859,95.437,540.476,538.972,0.0
53795.0,STARLINK-4742,PAYLOAD,2023-02-21 11:20:28,15.08825838,9.4e-05,53.2174,226.7313,85.9449,274.1651,0.00023266,3.416e-05,0.0,0 STARLINK-4742,1 53795U 22111Y   23052.47255007  .00003416  00000-0  23266-3 0  9994,2 53795  53.2174 226.7313 0000940  85.9449 274.1651 15.08825838 24986,6917.924,95.438,540.439,539.138,0.0
53795.0,STARLINK-4742,PAYLOAD,2023-02-21 20:52:47,15.08832829,0.0001112,53.2177,224.9478,83.0829,277.029,-1.5277e-05,-5.31e-06,0.0,0 STARLINK-4742,1 53795U 22111Y   23052.86999487 -.00000531  00000-0 -15277-4 0  9995,2 53795  53.2177 224.9478 0001112  83.0829 277.0290 15.08832829 25849,6917.902,95.438,540.537,538.998,0.0
53795.0,STARLINK-4742,PAYLOAD,2023-02-22 11:11:15,15.08837459,0.0001085,53.2191,222.2718,81.6727,278.4389,-3.7461e-06,-3.47e-06,0.0,0 STARLINK-4742,1 53795U 22111Y   23053.46615267 -.00000347  00000-0 -37461-5 0  9998,2 53795  53.2191 222.2718 0001085  81.6727 278.4389 15.08837459 25931,6917.888,95.438,540.504,539.003,0.0
53795.0,STARLINK-4742,PAYLOAD,2023-02-22 17:32:47,15.08846375,0.0001039,53.2181,221.0828,82.7854,277.3256,8.2679e-05,1.029e-05,0.0,0 STARLINK-4742,1 53795U 22111Y   23053.73110348  .00001029  00000-0  82679-4 0  9994,2 53795  53.2181 221.0828 0001039  82.7854 277.3256 15.08846375 25175,6917.861,95.437,540.445,539.007,0.0
53795.0,STARLINK-4742,PAYLOAD,2023-02-22 20:43:33,15.08851724,0.000119,53.2178,220.4881,83.3083,276.8045,6.8519e-05,8.03e-06,0.0,0 STARLINK-4742,1 53795U 22111Y   23053.86357996  .00000803  00000-0  68519-4 0  9996,2 53795  53.2178 220.4881 0001190  83.3083 276.8045 15.08851724 25996,6917.845,95.437,540.533,538.886,0.0
53795.0,STARLINK-4742,PAYLOAD,2023-02-23 11:02:02,15.08836285,0.0001347,53.2176,217.813,84.4224,275.6922,0.00011669,1.57e-05,0.0,0 STARLINK-4742,1 53795U 22111Y   23054.45974648  .00001570  00000-0  11669-3 0  9996,2 53795  53.2176 217.8130 0001347  84.4224 275.6922 15.08836285 26081,6917.892,95.438,540.689,538.825,0.0
53795.0,STARLINK-4742,PAYLOAD,2023-02-23 14:12:48,15.08835332,0.0001327,53.217,217.2179,84.1265,275.9879,0.00010892,1.446e-05,0.0,0 STARLINK-4742,1 53795U 22111Y   23054.59222709  .00001446  00000-0  10892-3 0  9994,2 53795  53.2170 217.2179 0001327  84.1265 275.9879 15.08835332 25302,6917.895,95.438,540.678,538.842,0.0
53795.0,STARLINK-4742,PAYLOAD,2023-02-23 17:23:34,15.08840213,0.0001185,53.2168,216.6232,86.2866,273.8262,0.00014624,2.04e-05,0.0,0 STARLINK-4742,1 53795U 22111Y   23054.72470291  .00002040  00000-0  14624-3 0  9998,2 53795  53.2168 216.6232 0001185  86.2866 273.8262 15.08840213 26122,6917.88,95.438,540.565,538.925,0.0
53795.0,STARLINK-4742,PAYLOAD,2023-02-24 10:52:49,15.08839298,0.0001492,53.2161,213.3525,95.7194,264.3968,4.128e-06,-2.22e-06,0.0,0 STARLINK-4742,1 53795U 22111Y   23055.45334878 -.00000222  00000-0  41280-5 0  9990,2 53795  53.2161 213.3525 0001492  95.7194 264.3968 15.08839298 26235,6917.883,95.438,540.78,538.715,0.0
53795.0,STARLINK-4742,PAYLOAD,2023-02-24 14:03:35,15.08838651,0.0001323,53.2162,212.7581,88.2673,271.8471,-9.479e-06,-4.39e-06,0.0,0 STARLINK-4742,1 53795U 22111Y   23055.58582962 -.00000439  00000-0 -94790-5 0  9998,2 53795  53.2162 212.7581 0001323  88.2673 271.8471 15.08838651 26259,6917.885,95.438,540.665,538.834,0.0
53795.0,STARLINK-4742,PAYLOAD,2023-02-25 02:46:40,15.08842088,0.0001108,53.2173,210.3772,87.8556,272.2563,-5.6187e-05,-1.182e-05,0.0,0 STARLINK-4742,1 53795U 22111Y   23056.11574769 -.00001182  00000-0 -56187-4 0  9997,2 53795  53.2173 210.3772 0001108  87.8556 272.2563 15.08842088 25539,6917.874,95.437,540.506,538.973,0.0
53795.0,STARLINK-4742,PAYLOAD,2023-02-25 18:40:32,15.08840117,0.0001309,53.219,207.407,74.8893,285.2244,-2.1052e-05,-6.23e-06,0.0,0 STARLINK-4742,1 53795U 22111Y   23056.77815167 -.00000623  00000-0 -21052-4 0  9991,2 53795  53.2190 207.4070 0001309  74.8893 285.2244 15.08840117 26430,6917.88,95.438,540.651,538.839,0.0
53795.0,STARLINK-4742,PAYLOAD,2023-02-26 02:37:28,15.08836199,0.0001081,53.2193,205.9204,89.2178,270.8938,2.8119e-05,1.6e-06,0.0,0 STARLINK-4742,1 53795U 22111Y   23057.10935287  .00000160  00000-0  28119-4 0  9990,2 53795  53.2193 205.9204 0001081  89.2178 270.8938 15.08836199 25689,6917.892,95.438,540.505,539.009,0.0
53795.0,STARLINK-4742,PAYLOAD,2023-02-26 12:09:46,15.08846298,0.00012,53.2186,204.1348,82.77,277.3428,0.00014038,1.947e-05,0.0,0 STARLINK-4742,1 53795U 22111Y   23057.50678321  .00001947  00000-0  14038-3 0  9995,2 53795  53.2186 204.1348 0001200  82.7700 277.3428 15.08846298 26546,6917.861,95.437,540.556,538.896,0.0
53795.0,STARLINK-4742,PAYLOAD,2023-02-26 20:06:42,15.0884055,0.0001231,53.218,202.6478,90.3841,269.7293,0.00013186,1.811e-05,0.0,0 STARLINK-4742,1 53795U 22111Y   23057.83798679  .00001811  00000-0  13186-3 0  9993,2 53795  53.2180 202.6478 0001231  90.3841 269.7293 15.08840550 25798,6917.879,95.438,540.595,538.892,0.0
53795.0,STARLINK-4742,PAYLOAD,2023-02-27 02:28:15,15.0883237,0.0001238,53.218,201.4578,96.5537,263.5596,1.8934e-05,1.3e-07,0.0,0 STARLINK-4742,1 53795U 22111Y   23058.10295506  .00000013  00000-0  18934-4 0  9995,2 53795  53.2180 201.4578 0001238  96.5537 263.5596 15.08832370 25837,6917.904,95.438,540.625,538.912,0.0
53795.0,STARLINK-4742,PAYLOAD,2023-02-27 18:22:05,15.08853356,0.0001664,53.2172,198.4808,78.1867,281.9312,0.00015006,2.102e-05,0.0,0 STARLINK-4742,1 53795U 22111Y   23058.76534128  .00002102  00000-0  15006-3 0  9990,2 53795  53.2172 198.4808 0001664  78.1867 281.9312 15.08853356 25932,6917.84,95.437,540.856,538.553,0.0
53795.0,STARLINK-4742,PAYLOAD,2023-02-28 13:26:44,15.08833723,0.0001331,53.2186,194.9164,81.2131,278.9012,-9.3062e-05,-1.768e-05,0.0,0 STARLINK-4742,1 53795U 22111Y   23059.56024043 -.00001768  00000-0 -93062-4 0  9997,2 53795  53.2186 194.9164 0001331  81.2131 278.9012 15.08833723 26854,6917.9,95.438,540.685,538.844,0.0
53795.0,STARLINK-4742,PAYLOAD,2023-02-28 15:02:07,15.08836648,0.0001463,53.2191,194.619,96.8087,263.3071,-6.9597e-05,-1.395e-05,0.0,0 STARLINK-4742,1 53795U 22111Y   23059.62647789 -.00001395  00000-0 -69597-4 0  9994,2 53795  53.2191 194.6190 0001463  96.8087 263.3071 15.08836648 26069,6917.891,95.438,540.768,538.744,0.0
53795.0,STARLINK-4742,PAYLOAD,2023-02-28 18:12:53,15.08838132,0.0001468,53.2192,194.0243,98.2647,261.8512,-5.0925e-05,-1.098e-05,0.0,0 STARLINK-4742,1 53795U 22111Y   23059.75895658 -.00001098  00000-0 -50925-4 0  9993,2 53795  53.2192 194.0243 0001468  98.2647 261.8512 15.08838132 26889,6917.886,95.438,540.767,538.736,0.0
53795.0,STARLINK-4742,PAYLOAD,2023-03-01 02:09:50,15.08824501,0.0001424,53.2185,192.5362,75.5015,284.6135,-2.1535e-05,-6.3e-06,0.0,0 STARLINK-4742,1 53795U 22111Y   23060.09016595 -.00000630  00000-0 -21535-4 0  9993,2 53795  53.2185 192.5362 0001424  75.5015 284.6135 15.08824501 26132,6917.928,95.439,540.778,538.808,0.0
53795.0,STARLINK-4742,PAYLOAD,2023-03-01 18:03:41,15.08843129,0.0001695,53.2177,189.5664,64.3611,295.7556,-1.5175e-05,-5.3e-06,0.0,0 STARLINK-4742,1 53795U 22111Y   23060.75256088 -.00000530  00000-0 -15175-4 0  9991,2 53795  53.2177 189.5664 0001695  64.3611 295.7556 15.08843129 26230,6917.871,95.437,540.908,538.563,0.0
53795.0,STARLINK-4742,PAYLOAD,2023-03-02 17:54:27,15.08854792,0.0001542,53.2192,185.1044,65.0868,295.0285,0.00034227,5.166e-05,0.0,0 STARLINK-4742,1 53795U 22111Y   23061.74614735  .00005166  00000-0  34227-3 0  9994,2 53795  53.2192 185.1044 0001542  65.0868 295.0285 15.08854792 27189,6917.835,95.437,540.767,538.633,0.0
53795.0,STARLINK-4742,PAYLOAD,2023-03-03 11:23:42,15.08851456,0.0001483,53.2168,181.8332,63.0051,297.1092,0.00025364,3.752e-05,0.0,0 STARLINK-4742,1 53795U 22111Y   23062.47479524  .00003752  00000-0  25364-3 0  9991,2 53795  53.2168 181.8332 0001483  63.0051 297.1092 15.08851456 26497,6917.845,95.437,540.736,538.684,0.0
53795.0,STARLINK-4742,PAYLOAD,2023-03-03 17:45:13,15.08878284,0.0001223,53.2175,180.6428,69.4495,290.6628,0.00049258,7.568e-05,0.0,0 STARLINK-4742,1 53795U 22111Y   23062.73973758  .00007568  00000-0  49258-3 0  9995,2 53795  53.2175 180.6428 0001223  69.4495 290.6628 15.08878284 26538,6917.763,95.435,540.474,538.782,0.0
53795.0,STARLINK-4742,PAYLOAD,2023-03-04 08:03:43,15.08833204,0.0001212,53.218,177.966,92.9021,267.211,-0.00024701,-4.216e-05,0.0,0 STARLINK-4742,1 53795U 22111Y   23063.33591892 -.00004216  00000-0 -24701-3 0  9992,2 53795  53.2180 177.9660 0001212  92.9021 267.2110 15.08833204 26624,6917.901,95.438,540.605,538.928,0.0
